STARLINK-2400           
1 47817U 21018AG  26068.74446531 -.00001197  00000+0 -28309-4 0  9990
2 47817  53.1598 242.8743 0001362  66.0772 294.0371 15.30197918276724
YAOGAN-36 04C           
1 54750U 22171E   26068.78871400  .00016196  00000+0  54592-3 0  9991
2 54750  34.9797  96.6578 0006685 275.3761  84.6192 15.29852307180246
